[{"OBJECT_NAME":"NINGXIA-1 7","OBJECT_ID":"2021-064B","EPOCH":"2026-03-09T23:03:16.134624","MEAN_MOTION":14.08535138,"ECCENTRICITY":0.00060368,"INCLINATION":45.0039,"RA_OF_ASC_NODE":315.6009,"ARG_OF_PERICENTER":124.1771,"MEAN_ANOMALY":235.9639,"EPHEMERIS_TYPE":0,"CLASSIFICATION_TYPE":"U","NORAD_CAT_ID":49019,"ELEMENT_SET_NO":999,"REV_AT_EPOCH":24025,"BSTAR":0.00016183554,"MEAN_MOTION_DOT":1.48e-6,"MEAN_MOTION_DDOT":0},{"OBJECT_NAME":"METEOR 2-5","OBJECT_ID":"1979-095A","EPOCH":"2026-03-09T19:31:37.066944","MEAN_MOTION":14.07457865,"ECCENTRICITY":0.0010103,"INCLINATION":81.212,"RA_OF_ASC_NODE":328.068,"ARG_OF_PERICENTER":192.7924,"MEAN_ANOMALY":167.299,"EPHEMERIS_TYPE":0,"CLASSIFICATION_TYPE":"U","NORAD_CAT_ID":11605,"ELEMENT_SET_NO":999,"REV_AT_EPOCH":37932,"BSTAR":9.5215148e-5,"MEAN_MOTION_DOT":1.73e-6,"MEAN_MOTION_DDOT":0}]
